NORAD_CAT_ID,OBJECT_NAME,OBJECT_TYPE,EPOCH,MEAN_MOTION,ECCENTRICITY,INCLINATION,RA_OF_ASC_NODE,ARG_OF_PERICENTER,MEAN_ANOMALY,BSTAR,MEAN_MOTION_DOT,MEAN_MOTION_DDOT,TLE_LINE0,TLE_LINE1,TLE_LINE2,SEMIMAJOR_AXIS,PERIOD,APOGEE,PERIGEE,DECAYED
52534.0,STARLINK-3952,PAYLOAD,2024-05-11 16:13:48,15.08775435,0.0001592,53.2168,243.4613,86.2541,273.8633,-0.001947,-0.00031087,0.0,0 STARLINK-3952,1 52534U 22051B   24132.67625319 -.00031087  00000-0 -19470-2 0  9994,2 52534  53.2168 243.4613 0001592  86.2541 273.8633 15.08775435110810,6918.078,95.442,541.044,538.841,0.0
52534.0,STARLINK-3952,PAYLOAD,2024-05-12 00:10:46,15.08740439,0.0001889,53.2172,241.975,87.2103,272.9105,-0.002117,-0.00033732,0.0,0 STARLINK-3952,1 52534U 22051B   24133.00747868 -.00033732  00000-0 -21170-2 0  9995,2 52534  53.2172 241.9750 0001889  87.2103 272.9105 15.08740439110869,6918.185,95.444,541.357,538.743,0.0
52534.0,STARLINK-3952,PAYLOAD,2024-05-12 12:53:53,15.08756162,0.0002299,53.2175,239.5965,138.8474,221.2692,-0.00080958,-0.0001312,0.0,0 STARLINK-3952,1 52534U 22051B   24133.53741967 -.00013120  00000-0 -80958-3 0  9996,2 52534  53.2175 239.5965 0002299 138.8474 221.2692 15.08756162110940,6918.137,95.443,541.592,538.411,0.0
52534.0,STARLINK-3952,PAYLOAD,2024-05-12 14:29:16,15.08763296,0.0001295,53.2167,239.2974,92.1637,267.9503,-0.00021255,-3.662e-05,0.0,0 STARLINK-3952,1 52534U 22051B   24133.60366710 -.00003662  00000-0 -21255-3 0  9998,2 52534  53.2167 239.2974 0001295  92.1637 267.9503 15.08763296111626,6918.115,95.442,540.876,539.084,0.0
52534.0,STARLINK-3952,PAYLOAD,2024-05-12 16:04:40,15.0876336,0.0001315,53.2166,238.9999,93.054,267.0603,-2.9598e-05,-7.58e-06,0.0,0 STARLINK-3952,1 52534U 22051B   24133.66991151 -.00000758  00000-0 -29598-4 0  9999,2 52534  53.2166 238.9999 0001315  93.0540 267.0603 15.08763360111639,6918.115,95.442,540.889,539.07,0.0
52534.0,STARLINK-3952,PAYLOAD,2024-05-13 00:01:37,15.08792903,0.0001271,53.216,237.514,94.0158,266.0979,0.0022112,0.00035033,0.0,0 STARLINK-3952,1 52534U 22051B   24134.00112425  .00035033  00000-0  22112-2 0  9992,2 52534  53.2160 237.5140 0001271  94.0158 266.0979 15.08792903111015,6918.024,95.441,540.769,539.01,0.0
52534.0,STARLINK-3952,PAYLOAD,2024-05-13 11:09:18,15.0884465,0.0001115,53.2157,235.4345,85.9947,274.1173,0.0016749,0.00026472,0.0,0 STARLINK-3952,1 52534U 22051B   24134.46479994  .00026472  00000-0  16749-2 0  9995,2 52534  53.2157 235.4345 0001115  85.9947 274.1173 15.08844650111087,6917.866,95.437,540.503,538.96,0.0
52534.0,STARLINK-3952,PAYLOAD,2024-05-14 12:35:25,15.08899898,0.0001306,53.2144,230.6763,83.6261,276.488,0.00092925,0.00014556,0.0,0 STARLINK-3952,1 52534U 22051B   24135.52460329  .00014556  00000-0  92925-3 0  9996,2 52534  53.2144 230.6763 0001306  83.6261 276.4880 15.08899898111242,6917.697,95.434,540.466,538.659,0.0
52534.0,STARLINK-3952,PAYLOAD,2024-05-15 06:04:37,15.08899883,0.0002006,53.2104,227.4001,104.6153,255.5061,0.00040607,6.191e-05,0.0,0 STARLINK-3952,1 52534U 22051B   24136.25321709  .00006191  00000-0  40607-3 0  9991,2 52534  53.2104 227.4001 0002006 104.6153 255.5061 15.08899883111354,6917.697,95.434,540.95,538.175,0.0
52534.0,STARLINK-3952,PAYLOAD,2024-05-15 12:26:09,15.0889704,0.0001717,53.2157,226.2146,98.3845,261.7342,0.00033528,5.06e-05,0.0,0 STARLINK-3952,1 52534U 22051B   24136.51816973  .00005060  00000-0  33528-3 0  9990,2 52534  53.2157 226.2146 0001717  98.3845 261.7342 15.08897040112067,6917.706,95.434,540.759,538.383,0.0
52534.0,STARLINK-3952,PAYLOAD,2024-05-15 23:33:50,15.08884594,0.0001522,53.2148,224.1305,92.3379,267.7787,0.00010481,1.382e-05,0.0,0 STARLINK-3952,1 52534U 22051B   24136.98183941  .00001382  00000-0  10481-3 0  9999,2 52534  53.2148 224.1305 0001522  92.3379 267.7787 15.08884594111463,6917.744,95.435,540.662,538.556,0.0
52534.0,STARLINK-3952,PAYLOAD,2024-05-16 12:16:55,15.08877453,0.0001711,53.2163,221.7503,85.9593,274.1595,0.00026025,3.86e-05,0.0,0 STARLINK-3952,1 52534U 22051B   24137.51175477  .00003860  00000-0  26025-3 0  9998,2 52534  53.2163 221.7503 0001711  85.9593 274.1595 15.08877453111543,6917.766,95.435,540.815,538.447,0.0
52534.0,STARLINK-3952,PAYLOAD,2024-05-16 15:27:41,15.08882382,0.0001377,53.2155,221.1558,81.0519,279.0629,0.00048341,7.423e-05,0.0,0 STARLINK-3952,1 52534U 22051B   24137.64422820  .00007423  00000-0  48341-3 0  9993,2 52534  53.2155 221.1558 0001377  81.0519 279.0629 15.08882382112237,6917.751,95.435,540.568,538.663,0.0
52534.0,STARLINK-3952,PAYLOAD,2024-05-17 12:07:43,15.08836687,0.0001382,53.2166,217.2919,97.7382,262.3767,-2.7195e-05,-7.21e-06,0.0,0 STARLINK-3952,1 52534U 22051B   24138.50535919 -.00000721  00000-0 -27195-4 0  9994,2 52534  53.2166 217.2919 0001382  97.7382 262.3767 15.08836687111698,6917.891,95.438,540.712,538.799,0.0
52534.0,STARLINK-3952,PAYLOAD,2024-05-17 21:40:02,15.08820747,0.0002111,53.2166,215.5079,81.2806,278.8425,-0.00018543,-3.237e-05,0.0,0 STARLINK-3952,1 52534U 22051B   24138.90280828 -.00003237  00000-0 -18543-3 0  9995,2 52534  53.2166 215.5079 0002111  81.2806 278.8425 15.08820747112421,6917.939,95.439,541.265,538.344,0.0
52534.0,STARLINK-3952,PAYLOAD,2024-05-18 05:36:58,15.0882453,0.0001278,53.2179,214.0208,89.636,270.4779,0.00011587,1.556e-05,0.0,0 STARLINK-3952,1 52534U 22051B   24139.23400941  .00001556  00000-0  11587-3 0  9993,2 52534  53.2179 214.0208 0001278  89.6360 270.4779 15.08824530111808,6917.928,95.439,540.677,538.909,0.0
52534.0,STARLINK-3952,PAYLOAD,2024-05-18 10:23:07,15.08842621,0.0001912,53.2176,213.1277,125.0859,235.0313,0.00092892,0.00014528,0.0,0 STARLINK-3952,1 52534U 22051B   24139.43272585  .00014528  00000-0  92892-3 0  9997,2 52534  53.2176 213.1277 0001912 125.0859 235.0313 15.08842621111839,6917.872,95.437,541.06,538.415,0.0
52534.0,STARLINK-3952,PAYLOAD,2024-05-18 21:30:49,15.08845333,0.0001495,53.2158,211.0463,57.0843,303.0293,0.00079746,0.00012428,0.0,0 STARLINK-3952,1 52534U 22051B   24139.89640999  .00012428  00000-0  79746-3 0  9995,2 52534  53.2158 211.0463 0001495  57.0843 303.0293 15.08845333112574,6917.864,95.437,540.763,538.695,0.0
52534.0,STARLINK-3952,PAYLOAD,2024-05-19 03:52:23,15.08813645,0.0001776,53.2165,209.859,86.3457,273.7738,-0.00030889,-5.197e-05,0.0,0 STARLINK-3952,1 52534U 22051B   24140.16137917 -.00005197  00000-0 -30889-3 0  9990,2 52534  53.2165 209.8590 0001776  86.3457 273.7738 15.08813645111944,6917.961,95.439,541.055,538.597,0.0
52534.0,STARLINK-3952,PAYLOAD,2024-05-19 13:24:42,15.08817129,0.0001623,53.2174,208.0761,88.4511,271.6667,0.00015263,2.14e-05,0.0,0 STARLINK-3952,1 52534U 22051B   24140.55882395  .00002140  00000-0  15263-3 0  9992,2 52534  53.2174 208.0761 0001623  88.4511 271.6667 15.08817129112670,6917.95,95.439,540.938,538.693,0.0
52534.0,STARLINK-3952,PAYLOAD,2024-05-19 15:00:05,15.08821341,0.0001513,53.2171,207.7777,76.8711,283.245,0.00035809,5.413e-05,0.0,0 STARLINK-3952,1 52534U 22051B   24140.62506450  .00005413  00000-0  35809-3 0  9999,2 52534  53.2171 207.7777 0001513  76.8711 283.2450 15.08821341112019,6917.937,95.439,540.849,538.756,0.0
52534.0,STARLINK-3952,PAYLOAD,2024-05-20 13:15:28,15.08875353,0.0001558,53.2168,203.6163,72.0343,288.0819,0.0016172,0.00025568,0.0,0 STARLINK-3952,1 52534U 22051B   24141.55241888  .00025568  00000-0  16172-2 0  9997,2 52534  53.2168 203.6163 0001558  72.0343 288.0819 15.08875353112156,6917.772,95.435,540.715,538.56,0.0
52534.0,STARLINK-3952,PAYLOAD,2024-05-21 03:33:57,15.08855528,0.0001382,53.2155,200.9395,71.6746,288.4396,0.001081,0.00016965,0.0,0 STARLINK-3952,1 52534U 22051B   24142.14857968  .00016965  00000-0  10810-2 0  9999,2 52534  53.2155 200.9395 0001382  71.6746 288.4396 15.08855528112242,6917.833,95.437,540.654,538.742,0.0
52534.0,STARLINK-3952,PAYLOAD,2024-05-21 11:30:52,15.08853319,0.0001394,53.2156,199.4519,74.9111,285.2035,0.00053142,8.183e-05,0.0,0 STARLINK-3952,1 52534U 22051B   24142.47977868  .00008183  00000-0  53142-3 0  9996,2 52534  53.2156 199.4519 0001394  74.9111 285.2035 15.08853319112294,6917.84,95.437,540.669,538.74,0.0
52534.0,STARLINK-3952,PAYLOAD,2024-05-22 09:46:15,15.08883748,0.000126,53.2149,195.2874,85.6875,274.4261,0.0011408,0.00017936,0.0,0 STARLINK-3952,1 52534U 22051B   24143.40712131  .00017936  00000-0  11408-2 0  9994,2 52534  53.2149 195.2874 0001260  85.6875 274.4261 15.08883748112438,6917.747,95.435,540.483,538.74,0.0
52534.0,STARLINK-3952,PAYLOAD,2024-05-23 09:37:03,15.08835271,0.0001392,53.2147,190.8261,120.7964,239.3166,0.00021323,3.107e-05,0.0,0 STARLINK-3952,1 52534U 22051B   24144.40073023  .00003107  00000-0  21323-3 0  9998,2 52534  53.2147 190.8261 0001392 120.7964 239.3166 15.08835271112581,6917.895,95.438,540.723,538.797,0.0
52534.0,STARLINK-3952,PAYLOAD,2024-05-24 03:06:18,15.08833988,0.0001465,53.2148,187.5577,100.3137,259.8021,0.00071959,0.00011181,0.0,0 STARLINK-3952,1 52534U 22051B   24145.12938038  .00011181  00000-0  71959-3 0  9995,2 52534  53.2148 187.5577 0001465 100.3137 259.8021 15.08833988112694,6917.899,95.438,540.777,538.75,0.0
52534.0,STARLINK-3952,PAYLOAD,2024-05-24 09:27:50,15.08844005,0.0001508,53.2143,186.3689,97.8643,262.252,0.0006733,0.00010445,0.0,0 STARLINK-3952,1 52534U 22051B   24145.39433847  .00010445  00000-0  67330-3 0  9992,2 52534  53.2143 186.3689 0001508  97.8643 262.2520 15.08844005113404,6917.868,95.437,540.776,538.69,0.0
52534.0,STARLINK-3952,PAYLOAD,2024-05-25 02:57:05,15.08843422,0.0001717,53.2151,183.0957,106.5311,253.587,0.00041866,6.382e-05,0.0,0 STARLINK-3952,1 52534U 22051B   24146.12298106  .00006382  00000-0  41866-3 0  9992,2 52534  53.2151 183.0957 0001717 106.5311 253.5870 15.08843422112847,6917.87,95.437,540.923,538.547,0.0
52534.0,STARLINK-3952,PAYLOAD,2024-05-25 12:29:24,15.08831003,0.0001633,53.2148,181.3116,96.0505,264.0673,1.7614e-05,-8e-08,0.0,0 STARLINK-3952,1 52534U 22051B   24146.52042559 -.00000008  00000-0  17614-4 0  9990,2 52534  53.2148 181.3116 0001633  96.0505 264.0673 15.08831003112903,6917.908,95.438,540.903,538.643,0.0
